STARLINK-36545          
1 67505U 26012N   26046.25002315 -.01876119  00000+0 -47577-1 0  9995
2 67505  43.0005  81.0386 0000698 284.2148 340.8416 15.42214228  5467
STARLINK-36553          
1 67506U 26012P   26046.25002315 -.01865371  00000+0 -49274-1 0  9990
2 67506  42.9996  80.9604 0001122 263.9491  32.5254 15.40980470  5466
STARLINK-36521          
1 67507U 26012Q   26046.25002315 -.01895836  00000+0 -49316-1 0  9997
2 67507  43.0001  80.9408 0001145 266.0406  38.5446 15.41491674  5466
STARLINK-36526          
1 67508U 26012R   26046.25002315 -.01903889  00000+0 -48285-1 0  9990
2 67508  42.9993  80.9138 0001117 260.7988  54.7042 15.42257613  5466
STARLINK-36541          
1 67509U 26012S   26045.42889574  .00071950  00000+0  12184-2 0  9991
2 67509  42.9986  86.7186 0000543 353.0224   7.0629 15.50639519  4196
STARLINK-36549          
1 67510U 26012T   26046.25002315 -.01938062  00000+0 -53678-1 0  9996
2 67510  42.9990  80.8375 0001314 262.5857  79.3847 15.39692876  5413
STARLINK-36540          
1 67511U 26012U   26045.49165125  .00095249  00000+0  16087-2 0  9993
2 67511  43.0023  86.3251 0003376 283.9420  76.1065 15.50592337  4207
STARLINK-36538          
1 67512U 26012V   26046.25002315 -.01873023  00000+0 -63347-1 0  9997
2 67512  43.0000  81.4006 0001345 286.7333 189.4475 15.33440290  5468
STARLINK-36531          
1 67513U 26012W   26046.25002315 -.01879436  00000+0 -60737-1 0  9992
2 67513  42.9998  81.2812 0001053 292.7190 231.9499 15.34873380  5404
STARLINK-36530          
1 67514U 26012X   26046.25002315 -.01815374  00000+0 -56386-1 0  9999
2 67514  43.0001  81.2957 0001449 286.8960 232.5611 15.35975450  5405
STARLINK-36543          
1 67515U 26012Y   26046.25002315 -.01887240  00000+0 -56597-1 0  9995
2 67515  42.9997  81.3137 0001305 291.0411 220.9416 15.37188599  5405
STARLINK-36537          
1 67516U 26012Z   26046.25002315 -.01885685  00000+0 -56384-1 0  9991
2 67516  43.0007  81.1420 0000908 295.5491 285.5421 15.37278618  5403
